IRIDIUM 136             
1 42962U 17061H   24088.89220213  .00000048  00000+0  99606-5 0  9993
2 42962  86.4032   3.8742 0002195  93.1154 267.0293 14.34212843338692
